CCSDS_OMM_VERS = 2.0
CREATION_DATE  = 
ORIGINATOR     = 

OBJECT_NAME    = STARLINK-36390
OBJECT_ID      = 2026-035H
CENTER_NAME    = EARTH
REF_FRAME      = TEME
TIME_SYSTEM    = UTC
MEAN_ELEMENT_THEORY = SGP/SGP4

EPOCH          = 2026-03-07T06:00:00.999648
MEAN_MOTION    = 15.93425088
ECCENTRICITY   = .00010844
INCLINATION    = 97.2726
RA_OF_ASC_NODE = 358.4113
ARG_OF_PERICENTER = 114.3410
MEAN_ANOMALY   = 179.6531

EPHEMERIS_TYPE = 0
CLASSIFICATION_TYPE = U
NORAD_CAT_ID   = 67886
ELEMENT_SET_NO = 999
REV_AT_EPOCH   = 341
BSTAR          = -.31318943E-2
MEAN_MOTION_DOT = -.1106036E-1
MEAN_MOTION_DDOT = .36816224E-3

CCSDS_OMM_VERS = 2.0
CREATION_DATE  = 
ORIGINATOR     = 

OBJECT_NAME    = STARLINK-36368
OBJECT_ID      = 2026-035J
CENTER_NAME    = EARTH
REF_FRAME      = TEME
TIME_SYSTEM    = UTC
MEAN_ELEMENT_THEORY = SGP/SGP4

EPOCH          = 2026-03-07T06:00:00.999648
MEAN_MOTION    = 15.93460954
ECCENTRICITY   = .00012636
INCLINATION    = 97.2725
RA_OF_ASC_NODE = 358.4132
ARG_OF_PERICENTER = 116.9777
MEAN_ANOMALY   = 181.6150

EPHEMERIS_TYPE = 0
CLASSIFICATION_TYPE = U
NORAD_CAT_ID   = 67887
ELEMENT_SET_NO = 999
REV_AT_EPOCH   = 336
BSTAR          = -.31034706E-2
MEAN_MOTION_DOT = -.1098139E-1
MEAN_MOTION_DDOT = .36343669E-3

CCSDS_OMM_VERS = 2.0
CREATION_DATE  = 
ORIGINATOR     = 

OBJECT_NAME    = STARLINK-36801
OBJECT_ID      = 2026-035K
CENTER_NAME    = EARTH
REF_FRAME      = TEME
TIME_SYSTEM    = UTC
MEAN_ELEMENT_THEORY = SGP/SGP4

EPOCH          = 2026-03-07T06:00:00.999648
MEAN_MOTION    = 15.93509014
ECCENTRICITY   = .00013131
INCLINATION    = 97.2721
RA_OF_ASC_NODE = 358.4150
ARG_OF_PERICENTER = 121.9044
MEAN_ANOMALY   = 181.1432

EPHEMERIS_TYPE = 0
CLASSIFICATION_TYPE = U
NORAD_CAT_ID   = 67888
ELEMENT_SET_NO = 999
REV_AT_EPOCH   = 336
BSTAR          = -.3112009E-2
MEAN_MOTION_DOT = -.1103888E-1
MEAN_MOTION_DDOT = .36715165E-3

CCSDS_OMM_VERS = 2.0
CREATION_DATE  = 
ORIGINATOR     = 

OBJECT_NAME    = STARLINK-36372
OBJECT_ID      = 2026-035L
CENTER_NAME    = EARTH
REF_FRAME      = TEME
TIME_SYSTEM    = UTC
MEAN_ELEMENT_THEORY = SGP/SGP4

EPOCH          = 2026-03-07T06:00:00.999648
MEAN_MOTION    = 15.93610392
ECCENTRICITY   = .00012889
INCLINATION    = 97.2713
RA_OF_ASC_NODE = 358.4182
ARG_OF_PERICENTER = 119.5498
MEAN_ANOMALY   = 192.1159

EPHEMERIS_TYPE = 0
CLASSIFICATION_TYPE = U
NORAD_CAT_ID   = 67889
ELEMENT_SET_NO = 999
REV_AT_EPOCH   = 336
BSTAR          = -.31270114E-2
MEAN_MOTION_DOT = -.1115009E-1
MEAN_MOTION_DDOT = .37442697E-3

CCSDS_OMM_VERS = 2.0
CREATION_DATE  = 
ORIGINATOR     = 

OBJECT_NAME    = STARLINK-36363
OBJECT_ID      = 2026-035M
CENTER_NAME    = EARTH
REF_FRAME      = TEME
TIME_SYSTEM    = UTC
MEAN_ELEMENT_THEORY = SGP/SGP4

EPOCH          = 2026-03-07T06:00:00.999648
MEAN_MOTION    = 15.93550942
ECCENTRICITY   = .00011538
INCLINATION    = 97.2721
RA_OF_ASC_NODE = 358.4172
ARG_OF_PERICENTER = 115.0934
MEAN_ANOMALY   = 192.8890

EPHEMERIS_TYPE = 0
CLASSIFICATION_TYPE = U
NORAD_CAT_ID   = 67890
ELEMENT_SET_NO = 999
REV_AT_EPOCH   = 336
BSTAR          = -.31479075E-2
MEAN_MOTION_DOT = -.1118926E-1
MEAN_MOTION_DDOT = .37663979E-3

CCSDS_OMM_VERS = 2.0
CREATION_DATE  = 
ORIGINATOR     = 

OBJECT_NAME    = STARLINK-36816
OBJECT_ID      = 2026-035N
CENTER_NAME    = EARTH
REF_FRAME      = TEME
TIME_SYSTEM    = UTC
MEAN_ELEMENT_THEORY = SGP/SGP4

EPOCH          = 2026-03-07T06:00:00.999648
MEAN_MOTION    = 15.94141976
ECCENTRICITY   = .00010266
INCLINATION    = 97.2704
RA_OF_ASC_NODE = 358.4429
ARG_OF_PERICENTER = 109.1804
MEAN_ANOMALY   = 266.1005

EPHEMERIS_TYPE = 0
CLASSIFICATION_TYPE = U
NORAD_CAT_ID   = 67891
ELEMENT_SET_NO = 999
REV_AT_EPOCH   = 325
BSTAR          = -.36860907E-2
MEAN_MOTION_DOT = -.1349116E-1
MEAN_MOTION_DDOT = .53575102E-3

CCSDS_OMM_VERS = 2.0
CREATION_DATE  = 
ORIGINATOR     = 

OBJECT_NAME    = STARLINK-36813
OBJECT_ID      = 2026-035P
CENTER_NAME    = EARTH
REF_FRAME      = TEME
TIME_SYSTEM    = UTC
MEAN_ELEMENT_THEORY = SGP/SGP4

EPOCH          = 2026-03-07T06:00:00.999648
MEAN_MOTION    = 15.93959098
ECCENTRICITY   = .00011101
INCLINATION    = 97.2693
RA_OF_ASC_NODE = 358.4306
ARG_OF_PERICENTER = 114.2133
MEAN_ANOMALY   = 232.4344

EPHEMERIS_TYPE = 0
CLASSIFICATION_TYPE = U
NORAD_CAT_ID   = 67892
ELEMENT_SET_NO = 999
REV_AT_EPOCH   = 336
BSTAR          = -.35217135E-2
MEAN_MOTION_DOT = -.1277327E-1
MEAN_MOTION_DDOT = .48329074E-3

CCSDS_OMM_VERS = 2.0
CREATION_DATE  = 
ORIGINATOR     = 

OBJECT_NAME    = STARLINK-36803
OBJECT_ID      = 2026-035Q
CENTER_NAME    = EARTH
REF_FRAME      = TEME
TIME_SYSTEM    = UTC
MEAN_ELEMENT_THEORY = SGP/SGP4

EPOCH          = 2026-03-07T06:00:00.999648
MEAN_MOTION    = 15.93645123
ECCENTRICITY   = .00012937
INCLINATION    = 97.2712
RA_OF_ASC_NODE = 358.4202
ARG_OF_PERICENTER = 119.0607
MEAN_ANOMALY   = 197.8237

EPHEMERIS_TYPE = 0
CLASSIFICATION_TYPE = U
NORAD_CAT_ID   = 67893
ELEMENT_SET_NO = 999
REV_AT_EPOCH   = 336
BSTAR          = -.31231668E-2
MEAN_MOTION_DOT = -.111566E-1
MEAN_MOTION_DDOT = .37496558E-3

CCSDS_OMM_VERS = 2.0
CREATION_DATE  = 
ORIGINATOR     = 

OBJECT_NAME    = STARLINK-36846
OBJECT_ID      = 2026-035R
CENTER_NAME    = EARTH
REF_FRAME      = TEME
TIME_SYSTEM    = UTC
MEAN_ELEMENT_THEORY = SGP/SGP4

EPOCH          = 2026-03-07T06:00:00.999648
MEAN_MOTION    = 15.93725807
ECCENTRICITY   = .00011493
INCLINATION    = 97.2708
RA_OF_ASC_NODE = 358.4246
ARG_OF_PERICENTER = 120.5485
MEAN_ANOMALY   = 206.9546

EPHEMERIS_TYPE = 0
CLASSIFICATION_TYPE = U
NORAD_CAT_ID   = 67894
ELEMENT_SET_NO = 999
REV_AT_EPOCH   = 336
BSTAR          = -.31861202E-2
MEAN_MOTION_DOT = -.1142716E-1
MEAN_MOTION_DDOT = .39231444E-3

CCSDS_OMM_VERS = 2.0
CREATION_DATE  = 
ORIGINATOR     = 

OBJECT_NAME    = STARLINK-36866
OBJECT_ID      = 2026-035S
CENTER_NAME    = EARTH
REF_FRAME      = TEME
TIME_SYSTEM    = UTC
MEAN_ELEMENT_THEORY = SGP/SGP4

EPOCH          = 2026-03-07T06:00:00.999648
MEAN_MOTION    = 15.93778417
ECCENTRICITY   = .00010654
INCLINATION    = 97.2707
RA_OF_ASC_NODE = 358.4264
ARG_OF_PERICENTER = 99.0244
MEAN_ANOMALY   = 233.2240

EPHEMERIS_TYPE = 0
CLASSIFICATION_TYPE = U
NORAD_CAT_ID   = 67895
ELEMENT_SET_NO = 999
REV_AT_EPOCH   = 336
BSTAR          = -.31950838E-2
MEAN_MOTION_DOT = -.1149031E-1
MEAN_MOTION_DDOT = .39655884E-3

CCSDS_OMM_VERS = 2.0
CREATION_DATE  = 
ORIGINATOR     = 

OBJECT_NAME    = STARLINK-36877
OBJECT_ID      = 2026-035T
CENTER_NAME    = EARTH
REF_FRAME      = TEME
TIME_SYSTEM    = UTC
MEAN_ELEMENT_THEORY = SGP/SGP4

EPOCH          = 2026-03-07T06:00:00.999648
MEAN_MOTION    = 15.93675366
ECCENTRICITY   = .00011616
INCLINATION    = 97.2709
RA_OF_ASC_NODE = 358.4222
ARG_OF_PERICENTER = 115.2913
MEAN_ANOMALY   = 207.0845

EPHEMERIS_TYPE = 0
CLASSIFICATION_TYPE = U
NORAD_CAT_ID   = 67896
ELEMENT_SET_NO = 999
REV_AT_EPOCH   = 336
BSTAR          = -.31273747E-2
MEAN_MOTION_DOT = -.1118888E-1
MEAN_MOTION_DDOT = .3770973E-3

CCSDS_OMM_VERS = 2.0
CREATION_DATE  = 
ORIGINATOR     = 

OBJECT_NAME    = STARLINK-36870
OBJECT_ID      = 2026-035U
CENTER_NAME    = EARTH
REF_FRAME      = TEME
TIME_SYSTEM    = UTC
MEAN_ELEMENT_THEORY = SGP/SGP4

EPOCH          = 2026-03-07T06:00:00.999648
MEAN_MOTION    = 15.93824729
ECCENTRICITY   = .00011854
INCLINATION    = 97.2702
RA_OF_ASC_NODE = 358.4281
ARG_OF_PERICENTER = 116.9841
MEAN_ANOMALY   = 220.5690

EPHEMERIS_TYPE = 0
CLASSIFICATION_TYPE = U
NORAD_CAT_ID   = 67897
ELEMENT_SET_NO = 999
REV_AT_EPOCH   = 336
BSTAR          = -.32340093E-2
MEAN_MOTION_DOT = -.1165725E-1
MEAN_MOTION_DDOT = .40748603E-3

