STARLINK-36390          
1 67886U 26035H   26066.25001157 -.01106036  36816-3 -31319-2 0  9997
2 67886  97.2726 358.4113 0001084 114.3410 179.6531 15.93425088  3417
STARLINK-36368          
1 67887U 26035J   26066.25001157 -.01098139  36344-3 -31035-2 0  9993
2 67887  97.2725 358.4132 0001263 116.9777 181.6150 15.93460954  3366
STARLINK-36801          
1 67888U 26035K   26066.25001157 -.01103888  36715-3 -31120-2 0  9999
2 67888  97.2721 358.4150 0001313 121.9044 181.1432 15.93509014  3361
STARLINK-36372          
1 67889U 26035L   26066.25001157 -.01115009  37443-3 -31270-2 0  9993
2 67889  97.2713 358.4182 0001288 119.5498 192.1159 15.93610392  3365
STARLINK-36363          
1 67890U 26035M   26066.25001157 -.01118926  37664-3 -31479-2 0  9992
2 67890  97.2721 358.4172 0001153 115.0934 192.8890 15.93550942  3365
STARLINK-36816          
1 67891U 26035N   26066.25001157 -.01349116  53575-3 -36861-2 0  9999
2 67891  97.2704 358.4429 0001026 109.1804 266.1005 15.94141976  3256
STARLINK-36813          
1 67892U 26035P   26066.25001157 -.01277327  48329-3 -35217-2 0  9999
2 67892  97.2693 358.4306 0001110 114.2133 232.4344 15.93959098  3369
STARLINK-36803          
1 67893U 26035Q   26066.25001157 -.01115660  37497-3 -31232-2 0  9998
2 67893  97.2712 358.4202 0001293 119.0607 197.8237 15.93645123  3364
STARLINK-36846          
1 67894U 26035R   26066.25001157 -.01142716  39231-3 -31861-2 0  9997
2 67894  97.2708 358.4246 0001149 120.5485 206.9546 15.93725807  3362
STARLINK-36866          
1 67895U 26035S   26066.25001157 -.01149031  39656-3 -31951-2 0  9996
2 67895  97.2707 358.4264 0001065  99.0244 233.2240 15.93778417  3361
STARLINK-36877          
1 67896U 26035T   26066.25001157 -.01118888  37710-3 -31274-2 0  9990
2 67896  97.2709 358.4222 0001161 115.2913 207.0845 15.93675366  3368
STARLINK-36870          
1 67897U 26035U   26066.25001157 -.01165725  40749-3 -32340-2 0  9994
2 67897  97.2702 358.4281 0001185 116.9841 220.5690 15.93824729  3368
